ORBCOMM FM05            
1 25117U 97084F   25047.83469137  .00003479  00000+0  10242-2 0  9996
2 25117  45.0129 225.6395 0000971 301.2161  58.8595 14.45188882423190
ORBCOMM FM06            
1 25118U 97084G   25048.54157446  .00003987  00000+0  11635-2 0  9994
2 25118  45.0122 222.1272 0000447 219.9882 201.8518 14.45361301424233
ORBCOMM FM07            
1 25119U 97084H   25048.54116549  .00004005  00000+0  11702-2 0  9991
2 25119  45.0119 222.8802 0001746 302.2066  57.8616 14.45294893424227
ORBCOMM FM03            
1 25158U 98007B   25048.16495900  .00002347  00000+0  87643-3 0  9994
2 25158 107.9703 249.1200 0043507  99.3549 261.2513 14.34011600406972
ORBCOMM FM04            
1 25159U 98007C   25047.82174233  .00002018  00000+0  75800-3 0  9997
2 25159 107.9687 251.5550 0039201  97.3339 263.2259 14.34272510406967
ORBCOMM FM17            
1 25413U 98046A   25048.50866794  .00002152  00000+0  80280-3 0  9996
2 25413  44.9932 102.2753 0003867 295.4130  64.6317 14.34669364386152
ORBCOMM FM18            
1 25414U 98046B   25048.18768648  .00003173  00000+0  10866-2 0  9996
2 25414  44.9940  24.3269 0005090  11.0103 349.0855 14.37951555387146
ORBCOMM FM19            
1 25415U 98046C   25048.19065736  .00003241  00000+0  11131-2 0  9998
2 25415  44.9949  26.1231 0004254 358.0344  16.5353 14.37763287387138
