<?xml version="1.0" encoding="UTF-8"?>
<ndm xmlns:xsi="http://www.w3.org/2001/XMLSchema-instance" xsi:noNamespaceSchemaLocation="https://sanaregistry.org/r/ndmxml_unqualified/ndmxml-2.0.0-master-2.0.xsd">
<omm id="CCSDS_OMM_VERS" version="2.0">
<header><CREATION_DATE/><ORIGINATOR/></header><body><segment><metadata><OBJECT_NAME>ORBCOMM FM05</OBJECT_NAME><OBJECT_ID>1997-084F</OBJECT_ID><CENTER_NAME>EARTH</CENTER_NAME><REF_FRAME>TEME</REF_FRAME><TIME_SYSTEM>UTC</TIME_SYSTEM><MEAN_ELEMENT_THEORY>SGP4</MEAN_ELEMENT_THEORY></metadata><data><meanElements><EPOCH>2025-02-16T20:01:57.334368</EPOCH><MEAN_MOTION>14.45188882</MEAN_MOTION><ECCENTRICITY>.0000971</ECCENTRICITY><INCLINATION>45.0129</INCLINATION><RA_OF_ASC_NODE>225.6395</RA_OF_ASC_NODE><ARG_OF_PERICENTER>301.2161</ARG_OF_PERICENTER><MEAN_ANOMALY>58.8595</MEAN_ANOMALY></meanElements><tleParameters><EPHEMERIS_TYPE>0</EPHEMERIS_TYPE><CLASSIFICATION_TYPE>U</CLASSIFICATION_TYPE><NORAD_CAT_ID>25117</NORAD_CAT_ID><ELEMENT_SET_NO>999</ELEMENT_SET_NO><REV_AT_EPOCH>42319</REV_AT_EPOCH><BSTAR>.10242E-2</BSTAR><MEAN_MOTION_DOT>.3479E-4</MEAN_MOTION_DOT><MEAN_MOTION_DDOT>0</MEAN_MOTION_DDOT></tleParameters></data></segment></body></omm>
<omm id="CCSDS_OMM_VERS" version="2.0">
<header><CREATION_DATE/><ORIGINATOR/></header><body><segment><metadata><OBJECT_NAME>ORBCOMM FM06</OBJECT_NAME><OBJECT_ID>1997-084G</OBJECT_ID><CENTER_NAME>EARTH</CENTER_NAME><REF_FRAME>TEME</REF_FRAME><TIME_SYSTEM>UTC</TIME_SYSTEM><MEAN_ELEMENT_THEORY>SGP4</MEAN_ELEMENT_THEORY></metadata><data><meanElements><EPOCH>2025-02-17T12:59:52.033344</EPOCH><MEAN_MOTION>14.45361301</MEAN_MOTION><ECCENTRICITY>.0000447</ECCENTRICITY><INCLINATION>45.0122</INCLINATION><RA_OF_ASC_NODE>222.1272</RA_OF_ASC_NODE><ARG_OF_PERICENTER>219.9882</ARG_OF_PERICENTER><MEAN_ANOMALY>201.8518</MEAN_ANOMALY></meanElements><tleParameters><EPHEMERIS_TYPE>0</EPHEMERIS_TYPE><CLASSIFICATION_TYPE>U</CLASSIFICATION_TYPE><NORAD_CAT_ID>25118</NORAD_CAT_ID><ELEMENT_SET_NO>999</ELEMENT_SET_NO><REV_AT_EPOCH>42423</REV_AT_EPOCH><BSTAR>.11635E-2</BSTAR><MEAN_MOTION_DOT>.3987E-4</MEAN_MOTION_DOT><MEAN_MOTION_DDOT>0</MEAN_MOTION_DDOT></tleParameters></data></segment></body></omm>
<omm id="CCSDS_OMM_VERS" version="2.0">
<header><CREATION_DATE/><ORIGINATOR/></header><body><segment><metadata><OBJECT_NAME>ORBCOMM FM07</OBJECT_NAME><OBJECT_ID>1997-084H</OBJECT_ID><CENTER_NAME>EARTH</CENTER_NAME><REF_FRAME>TEME</REF_FRAME><TIME_SYSTEM>UTC</TIME_SYSTEM><MEAN_ELEMENT_THEORY>SGP4</MEAN_ELEMENT_THEORY></metadata><data><meanElements><EPOCH>2025-02-17T12:59:16.698336</EPOCH><MEAN_MOTION>14.45294893</MEAN_MOTION><ECCENTRICITY>.0001746</ECCENTRICITY><INCLINATION>45.0119</INCLINATION><RA_OF_ASC_NODE>222.8802</RA_OF_ASC_NODE><ARG_OF_PERICENTER>302.2066</ARG_OF_PERICENTER><MEAN_ANOMALY>57.8616</MEAN_ANOMALY></meanElements><tleParameters><EPHEMERIS_TYPE>0</EPHEMERIS_TYPE><CLASSIFICATION_TYPE>U</CLASSIFICATION_TYPE><NORAD_CAT_ID>25119</NORAD_CAT_ID><ELEMENT_SET_NO>999</ELEMENT_SET_NO><REV_AT_EPOCH>42422</REV_AT_EPOCH><BSTAR>.11702E-2</BSTAR><MEAN_MOTION_DOT>.4005E-4</MEAN_MOTION_DOT><MEAN_MOTION_DDOT>0</MEAN_MOTION_DDOT></tleParameters></data></segment></body></omm>
<omm id="CCSDS_OMM_VERS" version="2.0">
<header><CREATION_DATE/><ORIGINATOR/></header><body><segment><metadata><OBJECT_NAME>ORBCOMM FM03</OBJECT_NAME><OBJECT_ID>1998-007B</OBJECT_ID><CENTER_NAME>EARTH</CENTER_NAME><REF_FRAME>TEME</REF_FRAME><TIME_SYSTEM>UTC</TIME_SYSTEM><MEAN_ELEMENT_THEORY>SGP4</MEAN_ELEMENT_THEORY></metadata><data><meanElements><EPOCH>2025-02-17T03:57:32.457600</EPOCH><MEAN_MOTION>14.34011600</MEAN_MOTION><ECCENTRICITY>.0043507</ECCENTRICITY><INCLINATION>107.9703</INCLINATION><RA_OF_ASC_NODE>249.1200</RA_OF_ASC_NODE><ARG_OF_PERICENTER>99.3549</ARG_OF_PERICENTER><MEAN_ANOMALY>261.2513</MEAN_ANOMALY></meanElements><tleParameters><EPHEMERIS_TYPE>0</EPHEMERIS_TYPE><CLASSIFICATION_TYPE>U</CLASSIFICATION_TYPE><NORAD_CAT_ID>25158</NORAD_CAT_ID><ELEMENT_SET_NO>999</ELEMENT_SET_NO><REV_AT_EPOCH>40697</REV_AT_EPOCH><BSTAR>.87643E-3</BSTAR><MEAN_MOTION_DOT>.2347E-4</MEAN_MOTION_DOT><MEAN_MOTION_DDOT>0</MEAN_MOTION_DDOT></tleParameters></data></segment></body></omm>
<omm id="CCSDS_OMM_VERS" version="2.0">
<header><CREATION_DATE/><ORIGINATOR/></header><body><segment><metadata><OBJECT_NAME>ORBCOMM FM04</OBJECT_NAME><OBJECT_ID>1998-007C</OBJECT_ID><CENTER_NAME>EARTH</CENTER_NAME><REF_FRAME>TEME</REF_FRAME><TIME_SYSTEM>UTC</TIME_SYSTEM><MEAN_ELEMENT_THEORY>SGP4</MEAN_ELEMENT_THEORY></metadata><data><meanElements><EPOCH>2025-02-16T19:43:18.537312</EPOCH><MEAN_MOTION>14.34272510</MEAN_MOTION><ECCENTRICITY>.0039201</ECCENTRICITY><INCLINATION>107.9687</INCLINATION><RA_OF_ASC_NODE>251.5550</RA_OF_ASC_NODE><ARG_OF_PERICENTER>97.3339</ARG_OF_PERICENTER><MEAN_ANOMALY>263.2259</MEAN_ANOMALY></meanElements><tleParameters><EPHEMERIS_TYPE>0</EPHEMERIS_TYPE><CLASSIFICATION_TYPE>U</CLASSIFICATION_TYPE><NORAD_CAT_ID>25159</NORAD_CAT_ID><ELEMENT_SET_NO>999</ELEMENT_SET_NO><REV_AT_EPOCH>40696</REV_AT_EPOCH><BSTAR>.758E-3</BSTAR><MEAN_MOTION_DOT>.2018E-4</MEAN_MOTION_DOT><MEAN_MOTION_DDOT>0</MEAN_MOTION_DDOT></tleParameters></data></segment></body></omm>
<omm id="CCSDS_OMM_VERS" version="2.0">
<header><CREATION_DATE/><ORIGINATOR/></header><body><segment><metadata><OBJECT_NAME>ORBCOMM FM17</OBJECT_NAME><OBJECT_ID>1998-046A</OBJECT_ID><CENTER_NAME>EARTH</CENTER_NAME><REF_FRAME>TEME</REF_FRAME><TIME_SYSTEM>UTC</TIME_SYSTEM><MEAN_ELEMENT_THEORY>SGP4</MEAN_ELEMENT_THEORY></metadata><data><meanElements><EPOCH>2025-02-17T12:12:28.910016</EPOCH><MEAN_MOTION>14.34669364</MEAN_MOTION><ECCENTRICITY>.0003867</ECCENTRICITY><INCLINATION>44.9932</INCLINATION><RA_OF_ASC_NODE>102.2753</RA_OF_ASC_NODE><ARG_OF_PERICENTER>295.4130</ARG_OF_PERICENTER><MEAN_ANOMALY>64.6317</MEAN_ANOMALY></meanElements><tleParameters><EPHEMERIS_TYPE>0</EPHEMERIS_TYPE><CLASSIFICATION_TYPE>U</CLASSIFICATION_TYPE><NORAD_CAT_ID>25413</NORAD_CAT_ID><ELEMENT_SET_NO>999</ELEMENT_SET_NO><REV_AT_EPOCH>38615</REV_AT_EPOCH><BSTAR>.8028E-3</BSTAR><MEAN_MOTION_DOT>.2152E-4</MEAN_MOTION_DOT><MEAN_MOTION_DDOT>0</MEAN_MOTION_DDOT></tleParameters></data></segment></body></omm>
<omm id="CCSDS_OMM_VERS" version="2.0">
<header><CREATION_DATE/><ORIGINATOR/></header><body><segment><metadata><OBJECT_NAME>ORBCOMM FM18</OBJECT_NAME><OBJECT_ID>1998-046B</OBJECT_ID><CENTER_NAME>EARTH</CENTER_NAME><REF_FRAME>TEME</REF_FRAME><TIME_SYSTEM>UTC</TIME_SYSTEM><MEAN_ELEMENT_THEORY>SGP4</MEAN_ELEMENT_THEORY></metadata><data><meanElements><EPOCH>2025-02-17T04:30:16.111872</EPOCH><MEAN_MOTION>14.37951555</MEAN_MOTION><ECCENTRICITY>.000509</ECCENTRICITY><INCLINATION>44.9940</INCLINATION><RA_OF_ASC_NODE>24.3269</RA_OF_ASC_NODE><ARG_OF_PERICENTER>11.0103</ARG_OF_PERICENTER><MEAN_ANOMALY>349.0855</MEAN_ANOMALY></meanElements><tleParameters><EPHEMERIS_TYPE>0</EPHEMERIS_TYPE><CLASSIFICATION_TYPE>U</CLASSIFICATION_TYPE><NORAD_CAT_ID>25414</NORAD_CAT_ID><ELEMENT_SET_NO>999</ELEMENT_SET_NO><REV_AT_EPOCH>38714</REV_AT_EPOCH><BSTAR>.10866E-2</BSTAR><MEAN_MOTION_DOT>.3173E-4</MEAN_MOTION_DOT><MEAN_MOTION_DDOT>0</MEAN_MOTION_DDOT></tleParameters></data></segment></body></omm>
<omm id="CCSDS_OMM_VERS" version="2.0">
<header><CREATION_DATE/><ORIGINATOR/></header><body><segment><metadata><OBJECT_NAME>ORBCOMM FM19</OBJECT_NAME><OBJECT_ID>1998-046C</OBJECT_ID><CENTER_NAME>EARTH</CENTER_NAME><REF_FRAME>TEME</REF_FRAME><TIME_SYSTEM>UTC</TIME_SYSTEM><MEAN_ELEMENT_THEORY>SGP4</MEAN_ELEMENT_THEORY></metadata><data><meanElements><EPOCH>2025-02-17T04:34:32.795904</EPOCH><MEAN_MOTION>14.37763287</MEAN_MOTION><ECCENTRICITY>.0004254</ECCENTRICITY><INCLINATION>44.9949</INCLINATION><RA_OF_ASC_NODE>26.1231</RA_OF_ASC_NODE><ARG_OF_PERICENTER>358.0344</ARG_OF_PERICENTER><MEAN_ANOMALY>16.5353</MEAN_ANOMALY></meanElements><tleParameters><EPHEMERIS_TYPE>0</EPHEMERIS_TYPE><CLASSIFICATION_TYPE>U</CLASSIFICATION_TYPE><NORAD_CAT_ID>25415</NORAD_CAT_ID><ELEMENT_SET_NO>999</ELEMENT_SET_NO><REV_AT_EPOCH>38713</REV_AT_EPOCH><BSTAR>.11131E-2</BSTAR><MEAN_MOTION_DOT>.3241E-4</MEAN_MOTION_DOT><MEAN_MOTION_DDOT>0</MEAN_MOTION_DDOT></tleParameters></data></segment></body></omm>

</ndm>
